BEIDOU 3 (C01)          
1 36287U 10001A   21140.82587813 -.00000275  00000-0  00000+0 0  9992
2 36287   1.8316  45.0476 0004465  77.8409 193.5669  1.00271089 41571
BEIDOU 5 (C06)          
1 36828U 10036A   21140.76419191 -.00000028  00000-0  00000+0 0  9993
2 36828  54.1716 179.8509 0112803 235.2632 217.7841  1.00269694 39638
BEIDOU 6 (C04)          
1 37210U 10057A   21140.50468681 -.00000107  00000-0  00000-0 0  9991
2 37210   0.7986  44.2955 0002421 135.9656  39.7951  1.00272431 38698
BEIDOU 7 (C07)          
1 37256U 10068A   21140.89790899 -.00000217  00000-0  00000+0 0  9995
2 37256  50.9104 294.3234 0084210 215.1170 171.6162  1.00263537 38218
BEIDOU 8 (C08)          
1 37384U 11013A   21140.47033532 -.00000207  00000-0  00000-0 0  9996
2 37384  59.7407  58.1867 0052433 206.9010 261.0109  1.00261516 37088
BEIDOU 9 (C09)          
1 37763U 11038A   21140.64649042 -.00000033  00000-0  00000+0 0  9998
2 37763  54.4598 182.2920 0082834 226.2293 158.5570  1.00270974 36064
BEIDOU 10 (C10)         
1 37948U 11073A   21140.26546284 -.00000145  00000-0  00000-0 0  9999
2 37948  51.0179 293.9466 0071081 213.5785 280.3615  1.00259755 34818
BEIDOU 11 (C05)         
1 38091U 12008A   21140.59354854  .00000061  00000-0  00000-0 0  9990
2 38091   1.4933  66.9173 0008507 320.7817 123.1845  1.00275562 33898
BEIDOU 12 (C11)         
1 38250U 12018A   21140.34695473 -.00000071  00000-0  00000-0 0  9998
2 38250  56.7553   6.5400 0020499 250.6112 279.3019  1.86234335 61763
BEIDOU 13 (C12)         
1 38251U 12018B   21140.17710412 -.00000071  00000-0  00000-0 0  9991
2 38251  56.6770   5.8952 0011613 256.0550 204.3929  1.86234164 61760
BEIDOU 15 (C14)         
1 38775U 12050B   21140.26572681  .00000091  00000-0  00000-0 0  9993
2 38775  55.1958 124.9319 0016271 316.9406  40.3281  1.86232350 59136
BEIDOU 16 (C02)         
1 38953U 12059A   21140.36755714 -.00000170  00000-0  00000-0 0  9990
2 38953   1.9030  84.7155 0008467 289.5365  80.3784  1.00272166 31465
BEIDOU 17 (C31)         
1 40549U 15019A   21140.44207550 -.00000165  00000-0  00000-0 0  9996
2 40549  52.5382 317.3104 0037403 186.3613 350.4121  1.00271953 22494
BEIDOU 18 (C57)         
1 40748U 15037A   21140.43659125 -.00000071  00000-0  00000-0 0  9991
2 40748  55.9394   4.9909 0005360  22.1683 162.1688  1.86233422 39596
BEIDOU 19 (C58)         
1 40749U 15037B   21140.27770955 -.00000071  00000-0  00000-0 0  9999
2 40749  55.9434   4.9843 0005326 342.9257 231.1221  1.86232227 39582
BEIDOU 20 (C18)         
1 40938U 15053A   21140.77143595 -.00000146  00000-0  00000+0 0  9998
2 40938  52.1080 280.3771 0046143 190.4848 140.3382  1.00289194 20762
BEIDOU IGSO-6 (C13)     
1 41434U 16021A   21140.26813066 -.00000172  00000-0  00000-0 0  9997
2 41434  57.5240  56.9390 0038522 215.9651 158.6896  1.00275115 18893
BEIDOU-2 G7 (C03)       
1 41586U 16037A   21140.73164559 -.00000349  00000-0  00000+0 0  9995
2 41586   1.6420  66.3613 0009645  15.2445 170.9514  1.00271926 18205
BEIDOU-3 M1 (C19)       
1 43001U 17069A   21140.28710640  .00000092  00000-0  00000-0 0  9998
2 43001  55.3496 124.8792 0012452 290.2783 237.4376  1.86231783 24074
BEIDOU-3 M2 (C20)       
1 43002U 17069B   21140.66719693  .00000093  00000-0  00000+0 0  9998
2 43002  55.3489 124.9024 0010924 307.1885 158.8825  1.86231469 24075
BEIDOU-3 M3 (C27)       
1 43107U 18003A   21140.46476704 -.00000073  00000-0  00000-0 0  9994
2 43107  55.3830   6.0833 0005723  45.4138  90.8033  1.86232551 22834
BEIDOU-3 M4 (C28)       
1 43108U 18003B   21140.13335119 -.00000073  00000-0  00000-0 0  9993
2 43108  55.3747   6.0842 0002047 259.3553  59.8395  1.86232488 22829
BEIDOU-3 M5 (C21)       
1 43207U 18018A   21140.64142314  .00000093  00000-0  00000+0 0  9998
2 43207  55.3101 124.9958 0008211 323.0742  36.8654  1.86231651 22227
BEIDOU-3 M6 (C22)       
1 43208U 18018B   21140.70809047  .00000093  00000-0  00000+0 0  9999
2 43208  55.3115 124.9984 0010536 299.2542  60.6429  1.86231856 22229
BEIDOU-3 M7 (C29)       
1 43245U 18029A   21140.33896964 -.00000071  00000-0  00000-0 0  9993
2 43245  55.3146   3.8797 0001417  30.9863 291.0693  1.86232669 21365
BEIDOU-3 M8 (C30)       
1 43246U 18029B   21140.26763103 -.00000072  00000-0  10000-3 0  9999
2 43246  55.3134   3.9132 0004862   0.6586 319.7202  1.86232847 21351
BEIDOU IGSO-7 (C16)     
1 43539U 18057A   21140.64155383 -.00000077  00000-0  00000-0 0  9993
2 43539  55.0533 179.2052 0038428 222.4939 181.4077  1.00277683 10574
BEIDOU-3 M9 (C23)       
1 43581U 18062A   21140.48756794 -.00000013  00000-0  00000-0 0  9991
2 43581  54.4114 245.5572 0003052 268.3607  49.4996  1.86231854 19104
BEIDOU-3 M10 (C24)      
1 43582U 18062B   21140.14268054 -.00000012  00000-0  00000-0 0  9991
2 43582  54.4151 245.5580 0004263   2.7429 175.2083  1.86232038 19102
BEIDOU-3 M11 (C25)      
1 43602U 18067A   21140.35765176 -.00000011  00000-0  00000-0 0  9998
2 43602  54.4884 244.1313 0006527   0.5956   3.7466  1.86231685 18604
BEIDOU-3 M12 (C26)      
1 43603U 18067B   21140.39579604 -.00000011  00000-0  00000-0 0  9992
2 43603  54.4838 244.0972 0003848 349.7741 310.6094  1.86231602 18614
BEIDOU-3 M13 (C32)      
1 43622U 18072A   21140.44102867  .00000092  00000-0  00000-0 0  9996
2 43622  55.2742 124.5709 0008950 287.7714  73.0821  1.86231742 18138
BEIDOU-3 M14 (C33)      
1 43623U 18072B   21140.56372993  .00000092  00000-0  00000+0 0  9998
2 43623  55.2742 124.5578 0007089 305.7971 227.5559  1.86231713 18133
BEIDOU-3 M15 (C34)      
1 43647U 18078A   21140.24021980 -.00000072  00000-0  10000-3 0  9996
2 43647  55.2073   4.0753 0007351   2.6356 209.0540  1.86232813 17636
BEIDOU-3 M16 (C35)      
1 43648U 18078B   21140.24412720 -.00000072  00000-0  10000-3 0  9993
2 43648  55.2038   4.0825 0005526  13.4587 109.3599  1.86232311 17657
BEIDOU-3 G1 (C59)       
1 43683U 18085A   21140.66569522 -.00000272  00000-0  00000+0 0  9996
2 43683   1.0983 230.5848 0002717   7.4714  20.1910  1.00272455  9487
BEIDOU-3 M17 (C36)      
1 43706U 18093A   21139.67784260 -.00000010  00000-0  00000-0 0  9999
2 43706  54.4933 245.4419 0009484 267.0193  92.8938  1.86231803 17001
BEIDOU-3 M18 (C37)      
1 43707U 18093B   21140.67406035 -.00000013  00000-0  00000+0 0  9995
2 43707  54.4933 245.3972 0007467 294.9626 103.6970  1.86232065 17013
BEIDOU-3 IGSO-1 (C38)   
1 44204U 19023A   21140.69354853 -.00000217  00000-0  00000+0 0  9990
2 44204  55.9823  57.2189 0015228 202.4476 338.1137  1.00247797  7777
BEIDOU-2 G8             
1 44231U 19027A   21140.60307184 -.00000243  00000-0  00000-0 0  9990
2 44231   0.2970 336.3962 0005592 216.5968  47.1080  1.00268801  7489
BEIDOU-3 IGSO-2 (C39)   
1 44337U 19035A   21140.42070227 -.00000061  00000-0  00000-0 0  9999
2 44337  55.0868 175.2483 0020226 192.0192 128.6373  1.00289567  7107
BEIDOU-3 M23 (C45)      
1 44542U 19061A   21140.53240462 -.00000013  00000-0  10000-3 0  9999
2 44542  54.7178 245.4748 0007321 331.5487 285.2723  1.86231229 11264
BEIDOU-3 M24 (C46)      
1 44543U 19061B   21140.12557166 -.00000011  00000-0  10000-3 0  9995
2 44543  54.7169 245.4591 0004638 314.7792 300.0957  1.86231732 11265
BEIDOU-3 IGSO-3         
1 44709U 19073A   21140.37218065 -.00000161  00000-0  00000-0 0  9993
2 44709  57.8830 300.4422 0018823 197.3614 341.0066  1.00283716  5862
BEIDOU-3 M21            
1 44793U 19078A   21139.51227063 -.00000074  00000-0  10000-3 0  9990
2 44793  55.0486   4.1710 0007360   7.6981  30.4205  1.86232671 10110
BEIDOU-3 M22            
1 44794U 19078B   21140.39282175 -.00000072  00000-0  00000+0 0  9997
2 44794  55.0377   4.1393 0005225   7.1883 172.2257  1.86232897 10124
BEIDOU-3 M19            
1 44864U 19090A   21140.37418707  .00000092  00000-0  00000-0 0  9991
2 44864  55.2090 124.8061 0018205 269.4026  92.1153  1.86231884  9715
BEIDOU-3 M20            
1 44865U 19090B   21140.48880787  .00000092  00000-0  00000+0 0  9994
2 44865  55.2108 124.8323 0016972 282.4071 245.8803  1.86231864  9695
BEIDOU-3 G2             
1 45344U 20017A   21140.58762089 -.00000140  00000-0  00000-0 0  9999
2 45344   2.4623 335.8277 0003546 110.2419  84.0212  1.00272068  4681
BEIDOU-3 G3             
1 45807U 20040A   21140.58821023 -.00000351  00000-0  00000-0 0  9997
2 45807   2.3481 298.5319 0005446   7.8676 254.3827  1.00273892  3493
